{
  "type": "FeatureCollection",
  "features": [
    {
      "type": "Feature",
      "properties": {
        "norad_id": 2807,
        "name": "OPS 7218 (TRANSIT 16)",
        "group": "nnss",
        "lat": 77.69808899243775,
        "lon": 172.57496291714227,
        "alt_km": 1046.8060934462683,
        "timestamp": "2025-12-10T23:33:13.087070+00:00",
        "meta_object_name": "OPS 7218 (TRANSIT 16)",
        "meta_object_id": "1967-048A",
        "meta_epoch": "2025-12-10T11:12:53.544960",
        "meta_mean_motion": 13.50721568,
        "meta_eccentricity": 0.00218613,
        "meta_inclination": 89.6732,
        "meta_ra_of_asc_node": 354.0916,
        "meta_arg_of_pericenter": 120.1596,
        "meta_mean_anomaly": 3.7393,
        "meta_ephemeris_type": 0,
        "meta_classification_type": "U",
        "meta_norad_cat_id": 2807,
        "meta_element_set_no": 999,
        "meta_rev_at_epoch": 88245,
        "meta_bstar": 0.00020523115,
        "meta_mean_motion_dot": 1.43e-06,
        "meta_mean_motion_ddot": 0,
        "tle_line1": "1 02807U 67048A   25344.46728640  .00000143  00000+0  20523-3 0  9999",
        "tle_line2": "2 02807  89.6732 354.0916 0021861 120.1596   3.7393 13.50721568882454"
      },
      "geometry": {
        "type": "Point",
        "coordinates": [
          172.57496291714227,
          77.69808899243775
        ]
      }
    },
    {
      "type": "Feature",
      "properties": {
        "norad_id": 2965,
        "name": "OPS 4947 (TRANSIT 17)",
        "group": "nnss",
        "lat": 30.86453574761583,
        "lon": -155.87877971082804,
        "alt_km": 1058.23256777404,
        "timestamp": "2025-12-10T23:33:13.087092+00:00",
        "meta_object_name": "OPS 4947 (TRANSIT 17)",
        "meta_object_id": "1967-092A",
        "meta_epoch": "2025-12-10T12:45:19.206720",
        "meta_mean_motion": 13.53452631,
        "meta_eccentricity": 0.00460603,
        "meta_inclination": 89.2498,
        "meta_ra_of_asc_node": 24.6041,
        "meta_arg_of_pericenter": 241.1249,
        "meta_mean_anomaly": 237.5005,
        "meta_ephemeris_type": 0,
        "meta_classification_type": "U",
        "meta_norad_cat_id": 2965,
        "meta_element_set_no": 999,
        "meta_rev_at_epoch": 87067,
        "meta_bstar": 0.00023317843,
        "meta_mean_motion_dot": 1.69e-06,
        "meta_mean_motion_ddot": 0,
        "tle_line1": "1 02965U 67092A   25344.53147230  .00000169  00000+0  23318-3 0  9994",
        "tle_line2": "2 02965  89.2498  24.6041 0046060 241.1249 237.5005 13.53452631870673"
      },
      "geometry": {
        "type": "Point",
        "coordinates": [
          -155.87877971082804,
          30.86453574761583
        ]
      }
    },
    {
      "type": "Feature",
      "properties": {
        "norad_id": 3133,
        "name": "OPS 7034 (TRANSIT 18)",
        "group": "nnss",
        "lat": -48.81434644328471,
        "lon": -86.33448956875186,
        "alt_km": 1113.3600250082982,
        "timestamp": "2025-12-10T23:33:13.087104+00:00",
        "meta_object_name": "OPS 7034 (TRANSIT 18)",
        "meta_object_id": "1968-012A",
        "meta_epoch": "2025-12-10T13:59:24.625824",
        "meta_mean_motion": 13.51564896,
        "meta_eccentricity": 0.00736384,
        "meta_inclination": 90.0278,
        "meta_ra_of_asc_node": 273.6326,
        "meta_arg_of_pericenter": 175.3824,
        "meta_mean_anomaly": 357.6163,
        "meta_ephemeris_type": 0,
        "meta_classification_type": "U",
        "meta_norad_cat_id": 3133,
        "meta_element_set_no": 999,
        "meta_rev_at_epoch": 56889,
        "meta_bstar": 0.00025956837,
        "meta_mean_motion_dot": 1.82e-06,
        "meta_mean_motion_ddot": 0,
        "tle_line1": "1 03133U 68012A   25344.58292391  .00000182  00000+0  25957-3 0  9995",
        "tle_line2": "2 03133  90.0278 273.6326 0073638 175.3824 357.6163 13.51564896568899"
      },
      "geometry": {
        "type": "Point",
        "coordinates": [
          -86.33448956875186,
          -48.81434644328471
        ]
      }
    },
    {
      "type": "Feature",
      "properties": {
        "norad_id": 4507,
        "name": "NNSS 19 (TRANSIT 19)",
        "group": "nnss",
        "lat": -76.79746945476516,
        "lon": -125.44360431643413,
        "alt_km": 952.1142119607848,
        "timestamp": "2025-12-10T23:33:13.087116+00:00",
        "meta_object_name": "NNSS 19 (TRANSIT 19)",
        "meta_object_id": "1970-067A",
        "meta_epoch": "2025-12-10T06:09:04.713984",
        "meta_mean_motion": 13.51314209,
        "meta_eccentricity": 0.0170695,
        "meta_inclination": 90.0056,
        "meta_ra_of_asc_node": 234.5321,
        "meta_arg_of_pericenter": 300.6377,
        "meta_mean_anomaly": 57.8039,
        "meta_ephemeris_type": 0,
        "meta_classification_type": "U",
        "meta_norad_cat_id": 4507,
        "meta_element_set_no": 999,
        "meta_rev_at_epoch": 72188,
        "meta_bstar": 0.00026981,
        "meta_mean_motion_dot": 1.99e-06,
        "meta_mean_motion_ddot": 0,
        "tle_line1": "1 04507U 70067A   25344.25630456  .00000199  00000+0  26981-3 0  9992",
        "tle_line2": "2 04507  90.0056 234.5321 0170695 300.6377  57.8039 13.51314209721889"
      },
      "geometry": {
        "type": "Point",
        "coordinates": [
          -125.44360431643413,
          -76.79746945476516
        ]
      }
    },
    {
      "type": "Feature",
      "properties": {
        "norad_id": 6909,
        "name": "NNSS 20 (TRANSIT 20)",
        "group": "nnss",
        "lat": -50.298014485530075,
        "lon": 75.25361673098936,
        "alt_km": 1097.4125055020386,
        "timestamp": "2025-12-10T23:33:13.087126+00:00",
        "meta_object_name": "NNSS 20 (TRANSIT 20)",
        "meta_object_id": "1973-081A",
        "meta_epoch": "2025-12-10T06:41:18.269088",
        "meta_mean_motion": 13.71432468,
        "meta_eccentricity": 0.0156615,
        "meta_inclination": 89.8563,
        "meta_ra_of_asc_node": 255.091,
        "meta_arg_of_pericenter": 85.6012,
        "meta_mean_anomaly": 276.3026,
        "meta_ephemeris_type": 0,
        "meta_classification_type": "U",
        "meta_norad_cat_id": 6909,
        "meta_element_set_no": 999,
        "meta_rev_at_epoch": 80327,
        "meta_bstar": 0.00033624,
        "meta_mean_motion_dot": 3.42e-06,
        "meta_mean_motion_ddot": 0,
        "tle_line1": "1 06909U 73081A   25344.27868367  .00000342  00000+0  33624-3 0  9997",
        "tle_line2": "2 06909  89.8563 255.0910 0156615  85.6012 276.3026 13.71432468803278"
      },
      "geometry": {
        "type": "Point",
        "coordinates": [
          75.25361673098936,
          -50.298014485530075
        ]
      }
    },
    {
      "type": "Feature",
      "properties": {
        "norad_id": 10457,
        "name": "TRANSAT",
        "group": "nnss",
        "lat": -56.08179913237734,
        "lon": 78.13573962832335,
        "alt_km": 1089.4602018113956,
        "timestamp": "2025-12-10T23:33:13.087137+00:00",
        "meta_object_name": "TRANSAT",
        "meta_object_id": "1977-106A",
        "meta_epoch": "2025-12-10T13:12:22.493376",
        "meta_mean_motion": 13.48943133,
        "meta_eccentricity": 0.00251858,
        "meta_inclination": 89.6482,
        "meta_ra_of_asc_node": 78.6745,
        "meta_arg_of_pericenter": 195.8787,
        "meta_mean_anomaly": 175.373,
        "meta_ephemeris_type": 0,
        "meta_classification_type": "U",
        "meta_norad_cat_id": 10457,
        "meta_element_set_no": 999,
        "meta_rev_at_epoch": 36714,
        "meta_bstar": 0.0001950246,
        "meta_mean_motion_dot": 1.32e-06,
        "meta_mean_motion_ddot": 0,
        "tle_line1": "1 10457U 77106A   25344.55026034  .00000132  00000+0  19502-3 0  9996",
        "tle_line2": "2 10457  89.6482  78.6745 0025185 195.8787 175.3730 13.48943133367145"
      },
      "geometry": {
        "type": "Point",
        "coordinates": [
          78.13573962832335,
          -56.08179913237734
        ]
      }
    },
    {
      "type": "Feature",
      "properties": {
        "norad_id": 12458,
        "name": "NOVA 1",
        "group": "nnss",
        "lat": 7.195215780764362,
        "lon": 91.42858784867806,
        "alt_km": 1176.4023917451068,
        "timestamp": "2025-12-10T23:33:13.087147+00:00",
        "meta_object_name": "NOVA 1",
        "meta_object_id": "1981-044A",
        "meta_epoch": "2025-12-10T14:30:00.893664",
        "meta_mean_motion": 13.23278193,
        "meta_eccentricity": 0.0015872,
        "meta_inclination": 89.8524,
        "meta_ra_of_asc_node": 91.4153,
        "meta_arg_of_pericenter": 109.2382,
        "meta_mean_anomaly": 262.2651,
        "meta_ephemeris_type": 0,
        "meta_classification_type": "U",
        "meta_norad_cat_id": 12458,
        "meta_element_set_no": 999,
        "meta_rev_at_epoch": 15158,
        "meta_bstar": 0.00017333414,
        "meta_mean_motion_dot": 8.2e-07,
        "meta_mean_motion_ddot": 0,
        "tle_line1": "1 12458U 81044A   25344.60417701  .00000082  00000+0  17333-3 0  9990",
        "tle_line2": "2 12458  89.8524  91.4153 0015872 109.2382 262.2651 13.23278193151582"
      },
      "geometry": {
        "type": "Point",
        "coordinates": [
          91.42858784867806,
          7.195215780764362
        ]
      }
    }
  ]
}